[{"OBJECT_NAME":"HIBARI","OBJECT_ID":"2021-102F","EPOCH":"2026-03-09T16:55:51.090816","MEAN_MOTION":15.29554512,"ECCENTRICITY":0.00120742,"INCLINATION":97.3381,"RA_OF_ASC_NODE":115.826,"ARG_OF_PERICENTER":186.5211,"MEAN_ANOMALY":173.5875,"EPHEMERIS_TYPE":0,"CLASSIFICATION_TYPE":"U","NORAD_CAT_ID":49400,"ELEMENT_SET_NO":999,"REV_AT_EPOCH":23897,"BSTAR":0.00042758039,"MEAN_MOTION_DOT":0.00012206,"MEAN_MOTION_DDOT":0},{"OBJECT_NAME":"STARLINK-30539","OBJECT_ID":"2023-153P","EPOCH":"2026-03-09T01:06:24.405984","MEAN_MOTION":15.26767353,"ECCENTRICITY":7.977e-5,"INCLINATION":42.9977,"RA_OF_ASC_NODE":70.1915,"ARG_OF_PERICENTER":178.2383,"MEAN_ANOMALY":181.8471,"EPHEMERIS_TYPE":0,"CLASSIFICATION_TYPE":"U","NORAD_CAT_ID":58004,"ELEMENT_SET_NO":999,"REV_AT_EPOCH":13479,"BSTAR":-0.00047045668,"MEAN_MOTION_DOT":-0.00012867,"MEAN_MOTION_DDOT":0}]
